STARLINK-2608           
1 48365U 21038N   26068.17531553  .00011788  00000+0  40909-3 0  9991
2 48365  53.1618 350.2719 0001255  98.1968 261.9176 15.30231293267155
CS2                     
1 49262U 21088C   26068.73485932  .00018033  00000+0  56178-3 0  9999
2 49262  97.3928 134.2907 0011637  82.3491 277.9072 15.33255930245263
